[{"OBJECT_NAME":"STARLINK-33771","OBJECT_ID":"2025-083AB","EPOCH":"2026-03-09T04:49:01.471872","MEAN_MOTION":15.27597149,"ECCENTRICITY":0.00046232,"INCLINATION":43.0146,"RA_OF_ASC_NODE":11.3577,"ARG_OF_PERICENTER":238.7453,"MEAN_ANOMALY":121.2946,"EPHEMERIS_TYPE":0,"CLASSIFICATION_TYPE":"U","NORAD_CAT_ID":63659,"ELEMENT_SET_NO":999,"REV_AT_EPOCH":4998,"BSTAR":0.0014576921,"MEAN_MOTION_DOT":0.00040098,"MEAN_MOTION_DDOT":0},{"OBJECT_NAME":"SL-19 R\/B","OBJECT_ID":"2011-005B","EPOCH":"2026-03-09T21:50:35.538720","MEAN_MOTION":15.57556472,"ECCENTRICITY":0.01260184,"INCLINATION":99.3438,"RA_OF_ASC_NODE":178.5978,"ARG_OF_PERICENTER":174.8144,"MEAN_ANOMALY":185.4445,"EPHEMERIS_TYPE":0,"CLASSIFICATION_TYPE":"U","NORAD_CAT_ID":37363,"ELEMENT_SET_NO":999,"REV_AT_EPOCH":82354,"BSTAR":0.00054776137,"MEAN_MOTION_DOT":0.00058791,"MEAN_MOTION_DDOT":0}]
